ICEYE-X43               
1 60539U 24149BZ  26189.77997472  .00001755  00000+0  14675-3 0  9994
2 60539  97.6814 266.4552 0006953  14.9788 345.1640 14.99772584103351
ICEYE-X40               
1 60549U 24149CK  26191.14745577  .00001337  00000+0  11806-3 0  9995
2 60549  97.6804 267.2722 0004527  14.3436 345.7914 14.98045385103517
ICEYE-X49               
1 62384U 24247H   26191.60247529  .00002339  00000+0  14220-3 0  9994
2 62384  44.9969 232.3284 0001310 239.1524 120.9224 15.13600626 85723
ICEYE-X47               
1 62389U 24247N   26191.24805528  .00001965  00000+0  12215-3 0  9994
2 62389  44.9950 233.8127 0001896 323.2378  36.8369 15.13473764 85671
ICEYE-X42               
1 62698U 25009CT  26190.94454288  .00001141  00000+0  11850-3 0  9993
2 62698  97.7369 268.8517 0001580  78.4032 281.7365 14.91841595 80680
ICEYE-X41               
1 62700U 25009CV  26191.53439278  .00001388  00000+0  12593-3 0  9993
2 62700  97.7064 270.7222 0000659 351.5003   8.6207 14.96898461 80905
ICEYE-X45               
1 62705U 25009DA  26190.19755006  .00004401  00000+0  35108-3 0  9995
2 62705  97.8389 277.0630 0001347  83.0695 277.0682 15.00834679 80987
ICEYE-X44               
1 62707U 25009DC  26189.75547583  .00002064  00000+0  18849-3 0  9992
2 62707  97.7046 268.5409 0002514  83.8125 276.3383 14.96140860103162
ICEYE-X48               
1 63253U 25052AV  26189.69816555  .00001783  00000+0  15556-3 0  9997
2 63253  97.6841  81.5559 0003270 119.7800 240.3748 14.98103104 71891
ICEYE-X46               
1 63258U 25052BA  26191.17402545  .00001572  00000+0  14759-3 0  9998
2 63258  97.6866  82.6243 0001648  85.4311 274.7099 14.95353960 72084
