{
 "generated_at": "2026-07-11T07:11:30Z",
 "sources": [
  {
   "name": "CelesTrak",
   "url": "https://celestrak.org/NORAD/elements/",
   "license": "frei verfügbar; Attribution. Ursprünglich USSPACECOM/Space-Track."
  },
  {
   "name": "GCAT (J. McDowell, planet4589.org)",
   "url": "https://planet4589.org/space/gcat/",
   "license": "CC-BY 4.0"
  }
 ],
 "satellites": [
  {
   "norad": 60549,
   "name": "ICEYE-X40",
   "intl": "2024-149CK",
   "group": "sar",
   "gcat": {
    "class": "B",
    "category": "IMG-R",
    "owner": "ALYAH",
    "state": "UAE"
   },
   "omm": {
    "OBJECT_NAME": "ICEYE-X40",
    "OBJECT_ID": "2024-149CK",
    "EPOCH": "2026-07-10T03:32:20.178528",
    "MEAN_MOTION": 14.98045385,
    "ECCENTRICITY": 0.00045272,
    "INCLINATION": 97.6804,
    "RA_OF_ASC_NODE": 267.2722,
    "ARG_OF_PERICENTER": 14.3436,
    "MEAN_ANOMALY": 345.7914,
    "EPHEMERIS_TYPE": 0,
    "CLASSIFICATION_TYPE": "U",
    "NORAD_CAT_ID": 60549,
    "ELEMENT_SET_NO": 999,
    "REV_AT_EPOCH": 10351,
    "BSTAR": 0.00011805953,
    "MEAN_MOTION_DOT": 0.00001337,
    "MEAN_MOTION_DDOT": 0
   }
  },
  {
   "norad": 62700,
   "name": "ICEYE-X41",
   "intl": "2025-009CV",
   "group": "sar",
   "gcat": {
    "class": "B",
    "category": "IMG-R",
    "owner": "ICEUS",
    "state": "US"
   },
   "omm": {
    "OBJECT_NAME": "ICEYE-X41",
    "OBJECT_ID": "2025-009CV",
    "EPOCH": "2026-07-10T12:49:31.536192",
    "MEAN_MOTION": 14.96898461,
    "ECCENTRICITY": 0.0000659,
    "INCLINATION": 97.7064,
    "RA_OF_ASC_NODE": 270.7222,
    "ARG_OF_PERICENTER": 351.5003,
    "MEAN_ANOMALY": 8.6207,
    "EPHEMERIS_TYPE": 0,
    "CLASSIFICATION_TYPE": "U",
    "NORAD_CAT_ID": 62700,
    "ELEMENT_SET_NO": 999,
    "REV_AT_EPOCH": 8090,
    "BSTAR": 0.00012593,
    "MEAN_MOTION_DOT": 0.00001388,
    "MEAN_MOTION_DDOT": 0
   }
  },
  {
   "norad": 62698,
   "name": "ICEYE-X42",
   "intl": "2025-009CT",
   "group": "sar",
   "gcat": {
    "class": "B",
    "category": "IMG-R",
    "owner": "SP42",
    "state": "UAE"
   },
   "omm": {
    "OBJECT_NAME": "ICEYE-X42",
    "OBJECT_ID": "2025-009CT",
    "EPOCH": "2026-07-09T22:40:08.504832",
    "MEAN_MOTION": 14.91841595,
    "ECCENTRICITY": 0.00015807,
    "INCLINATION": 97.7369,
    "RA_OF_ASC_NODE": 268.8517,
    "ARG_OF_PERICENTER": 78.4032,
    "MEAN_ANOMALY": 281.7365,
    "EPHEMERIS_TYPE": 0,
    "CLASSIFICATION_TYPE": "U",
    "NORAD_CAT_ID": 62698,
    "ELEMENT_SET_NO": 999,
    "REV_AT_EPOCH": 8068,
    "BSTAR": 0.00011850349,
    "MEAN_MOTION_DOT": 0.00001141,
    "MEAN_MOTION_DDOT": 0
   }
  },
  {
   "norad": 60539,
   "name": "ICEYE-X43",
   "intl": "2024-149BZ",
   "group": "sar",
   "gcat": {
    "class": "B",
    "category": "IMG-R",
    "owner": "FAB/ICEYE",
    "state": "BR"
   },
   "omm": {
    "OBJECT_NAME": "ICEYE-X43",
    "OBJECT_ID": "2024-149BZ",
    "EPOCH": "2026-07-08T18:43:09.815808",
    "MEAN_MOTION": 14.99772584,
    "ECCENTRICITY": 0.00069538,
    "INCLINATION": 97.6814,
    "RA_OF_ASC_NODE": 266.4552,
    "ARG_OF_PERICENTER": 14.9788,
    "MEAN_ANOMALY": 345.164,
    "EPHEMERIS_TYPE": 0,
    "CLASSIFICATION_TYPE": "U",
    "NORAD_CAT_ID": 60539,
    "ELEMENT_SET_NO": 999,
    "REV_AT_EPOCH": 10335,
    "BSTAR": 0.00014675091,
    "MEAN_MOTION_DOT": 0.00001755,
    "MEAN_MOTION_DDOT": 0
   }
  },
  {
   "norad": 62707,
   "name": "ICEYE-X44",
   "intl": "2025-009DC",
   "group": "sar",
   "gcat": {
    "class": "B",
    "category": "IMG-R",
    "owner": "SP42",
    "state": "UAE"
   },
   "omm": {
    "OBJECT_NAME": "ICEYE-X44",
    "OBJECT_ID": "2025-009DC",
    "EPOCH": "2026-07-08T18:07:53.111712",
    "MEAN_MOTION": 14.9614086,
    "ECCENTRICITY": 0.00025143,
    "INCLINATION": 97.7046,
    "RA_OF_ASC_NODE": 268.5409,
    "ARG_OF_PERICENTER": 83.8125,
    "MEAN_ANOMALY": 276.3383,
    "EPHEMERIS_TYPE": 0,
    "CLASSIFICATION_TYPE": "U",
    "NORAD_CAT_ID": 62707,
    "ELEMENT_SET_NO": 999,
    "REV_AT_EPOCH": 10316,
    "BSTAR": 0.00018848943,
    "MEAN_MOTION_DOT": 0.00002064,
    "MEAN_MOTION_DDOT": 0
   }
  },
  {
   "norad": 62705,
   "name": "ICEYE-X45",
   "intl": "2025-009DA",
   "group": "sar",
   "gcat": {
    "class": "B",
    "category": "IMG-R",
    "owner": "ICEUS",
    "state": "US"
   },
   "omm": {
    "OBJECT_NAME": "ICEYE-X45",
    "OBJECT_ID": "2025-009DA",
    "EPOCH": "2026-07-09T04:44:28.325184",
    "MEAN_MOTION": 15.00834679,
    "ECCENTRICITY": 0.00013474,
    "INCLINATION": 97.8389,
    "RA_OF_ASC_NODE": 277.063,
    "ARG_OF_PERICENTER": 83.0695,
    "MEAN_ANOMALY": 277.0682,
    "EPHEMERIS_TYPE": 0,
    "CLASSIFICATION_TYPE": "U",
    "NORAD_CAT_ID": 62705,
    "ELEMENT_SET_NO": 999,
    "REV_AT_EPOCH": 8098,
    "BSTAR": 0.00035107789,
    "MEAN_MOTION_DOT": 0.00004401,
    "MEAN_MOTION_DDOT": 0
   }
  },
  {
   "norad": 63258,
   "name": "ICEYE-X46",
   "intl": "2025-052BA",
   "group": "sar",
   "gcat": {
    "class": "B",
    "category": "IMG-R",
    "owner": "ICEYE",
    "state": "FI"
   },
   "omm": {
    "OBJECT_NAME": "ICEYE-X46",
    "OBJECT_ID": "2025-052BA",
    "EPOCH": "2026-07-10T04:10:35.798880",
    "MEAN_MOTION": 14.9535396,
    "ECCENTRICITY": 0.0001648,
    "INCLINATION": 97.6866,
    "RA_OF_ASC_NODE": 82.6243,
    "ARG_OF_PERICENTER": 85.4311,
    "MEAN_ANOMALY": 274.7099,
    "EPHEMERIS_TYPE": 0,
    "CLASSIFICATION_TYPE": "U",
    "NORAD_CAT_ID": 63258,
    "ELEMENT_SET_NO": 999,
    "REV_AT_EPOCH": 7208,
    "BSTAR": 0.00014759244,
    "MEAN_MOTION_DOT": 0.00001572,
    "MEAN_MOTION_DDOT": 0
   }
  },
  {
   "norad": 62389,
   "name": "ICEYE-X47",
   "intl": "2024-247N",
   "group": "sar",
   "gcat": {
    "class": "B",
    "category": "IMG-R",
    "owner": "ICEYE",
    "state": "FI"
   },
   "omm": {
    "OBJECT_NAME": "ICEYE-X47",
    "OBJECT_ID": "2024-247N",
    "EPOCH": "2026-07-10T05:57:11.976192",
    "MEAN_MOTION": 15.13473764,
    "ECCENTRICITY": 0.00018963,
    "INCLINATION": 44.995,
    "RA_OF_ASC_NODE": 233.8127,
    "ARG_OF_PERICENTER": 323.2378,
    "MEAN_ANOMALY": 36.8369,
    "EPHEMERIS_TYPE": 0,
    "CLASSIFICATION_TYPE": "U",
    "NORAD_CAT_ID": 62389,
    "ELEMENT_SET_NO": 999,
    "REV_AT_EPOCH": 8567,
    "BSTAR": 0.00012215385,
    "MEAN_MOTION_DOT": 0.00001965,
    "MEAN_MOTION_DDOT": 0
   }
  },
  {
   "norad": 63253,
   "name": "ICEYE-X48",
   "intl": "2025-052AV",
   "group": "sar",
   "gcat": {
    "class": "B",
    "category": "IMG-R",
    "owner": "ICEUS",
    "state": "US"
   },
   "omm": {
    "OBJECT_NAME": "ICEYE-X48",
    "OBJECT_ID": "2025-052AV",
    "EPOCH": "2026-07-08T16:45:21.503520",
    "MEAN_MOTION": 14.98103104,
    "ECCENTRICITY": 0.00032705,
    "INCLINATION": 97.6841,
    "RA_OF_ASC_NODE": 81.5559,
    "ARG_OF_PERICENTER": 119.78,
    "MEAN_ANOMALY": 240.3748,
    "EPHEMERIS_TYPE": 0,
    "CLASSIFICATION_TYPE": "U",
    "NORAD_CAT_ID": 63253,
    "ELEMENT_SET_NO": 999,
    "REV_AT_EPOCH": 7189,
    "BSTAR": 0.00015555836,
    "MEAN_MOTION_DOT": 0.00001783,
    "MEAN_MOTION_DDOT": 0
   }
  },
  {
   "norad": 62384,
   "name": "ICEYE-X49",
   "intl": "2024-247H",
   "group": "sar",
   "gcat": {
    "class": "B",
    "category": "IMG-R",
    "owner": "ICEYE",
    "state": "FI"
   },
   "omm": {
    "OBJECT_NAME": "ICEYE-X49",
    "OBJECT_ID": "2024-247H",
    "EPOCH": "2026-07-10T14:27:33.865056",
    "MEAN_MOTION": 15.13600626,
    "ECCENTRICITY": 0.000131,
    "INCLINATION": 44.9969,
    "RA_OF_ASC_NODE": 232.3284,
    "ARG_OF_PERICENTER": 239.1524,
    "MEAN_ANOMALY": 120.9224,
    "EPHEMERIS_TYPE": 0,
    "CLASSIFICATION_TYPE": "U",
    "NORAD_CAT_ID": 62384,
    "ELEMENT_SET_NO": 999,
    "REV_AT_EPOCH": 8572,
    "BSTAR": 0.0001422,
    "MEAN_MOTION_DOT": 0.00002339,
    "MEAN_MOTION_DDOT": 0
   }
  }
 ]
}
